[options]
temp_dir_name = c:\tmp
template_path = C:\\tmp_script\\template_blender_script_topex_new.py
blender_path = C:\\Program Files\\Blender Foundation\\Blender 3.6\\blender

[mcmc_params]
niter_burn = 50
niter = 300   #100
nwalkers = 20 #20
save_mcmc_file = save_mcmc_fit_spb_2.h5

[satellite]
name = Topex/Poseidon
cospar = 92052A
norad = 22076
sat_model_path = C:\\tmp_script\\top_model\\Topex_g5_spb3.blend

[blender_lc]
start_date = 2020-08-02  # LC start date YYYY-MM-DD
start_time = 20:31:42    # LC start time HH:MM:SS 
lc_duration = 30         # LC duration in seconds 
frame_size = 380x240     # frame resolution
fps = 3                  # Frames per second
tle_line1 = 1 22076U 92052A   21160.57864517 -.00000059  00000-0  95149-5 0  9996
tle_line2 = 2 22076  66.0409 341.5772 0007830 272.3340 147.4137 12.81032194348634

[var_params]
p_spin =  9.85
p_phase = 0
p_pr = 0
pr_phase = 0
pr_angle = 45

[var_param_limits]
p_spin: [9.83, 9.89, 0.001]  # min, max, step
p_phase: [20, 175, 1]
p_pr: [300, 800, 5]
pr_phase: [0, 359, 1]
pr_angle: [10, 62, 1]